TIANMU-1 07             
1 57399U 23101A   26065.57454230  .00008352  00000+0  29795-3 0  9991
2 57399  97.2728 118.5929 0004609 142.4105 217.7458 15.29118809145964
STARLINK-36143          
1 67056U 25294AC  26068.31637605  .00017745  00000+0  65286-3 0  9992
2 67056  43.0039  40.0490 0001542 252.6337 107.4346 15.27577073 14747
